[{"OBJECT_NAME":"TIANQI-6","OBJECT_ID":"2020-076D","EPOCH":"2026-03-09T22:50:24.728640","MEAN_MOTION":15.06417552,"ECCENTRICITY":0.00106023,"INCLINATION":34.9994,"RA_OF_ASC_NODE":297.1791,"ARG_OF_PERICENTER":9.4595,"MEAN_ANOMALY":350.6312,"EPHEMERIS_TYPE":0,"CLASSIFICATION_TYPE":"U","NORAD_CAT_ID":46810,"ELEMENT_SET_NO":999,"REV_AT_EPOCH":29360,"BSTAR":0.00037023286,"MEAN_MOTION_DOT":5.552e-5,"MEAN_MOTION_DDOT":0},{"OBJECT_NAME":"STARLINK-35136","OBJECT_ID":"2025-200T","EPOCH":"2026-03-09T17:22:37.635744","MEAN_MOTION":15.0562863,"ECCENTRICITY":0.00016048,"INCLINATION":97.6024,"RA_OF_ASC_NODE":139.7945,"ARG_OF_PERICENTER":88.3851,"MEAN_ANOMALY":271.7559,"EPHEMERIS_TYPE":0,"CLASSIFICATION_TYPE":"U","NORAD_CAT_ID":65537,"ELEMENT_SET_NO":999,"REV_AT_EPOCH":2904,"BSTAR":0.00068992897,"MEAN_MOTION_DOT":9.902e-5,"MEAN_MOTION_DDOT":0}]
